<?xml version='1.0' encoding='UTF-8' standalone='yes' ?>
<gpx xmlns="http://www.topografix.com/GPX/1/1" xmlns:geotracker="http://ilyabogdanovich.com/gpx/extensions/geotracker" xmlns:xsi="http://www.w3.org/2001/XMLSchema-instance" xsi:schemaLocation="http://www.topografix.com/GPX/1/1 http://www.topografix.com/GPX/1/1/gpx.xsd" version="1.1" creator="Enregistré par Geo Tracker pour Android de Ilya Bogdanovich">
  <metadata>
    <name>29 mars 2026 20:06:56</name>
    <author>
      <name>Enregistré par Geo Tracker pour Android de Ilya Bogdanovich</name>
      <link href="https://play.google.com/store/apps/details?id=com.ilyabogdanovich.geotracker" />
    </author>
    <link href="https://play.google.com/store/apps/details?id=com.ilyabogdanovich.geotracker" />
    <time>2026-03-29T18:06:56Z</time>
  </metadata>
  <wpt lat="40.85178598" lon="14.25364248">
    <ele>96.09</ele>
    <time>2026-03-29T18:31:44Z</time>
    <name>Arrêt de ~2 min</name>
    <desc>Altitude: 96 m
Durée depuis le départ: 00:24:47
Distance depuis le départ: 1,39 km</desc>
    <extensions>
      <geotracker:meta visited="1" />
    </extensions>
  </wpt>
  <trk>
    <name>29 mars 2026 20:06:56</name>
    <src>Enregistré par Geo Tracker pour Android de Ilya Bogdanovich</src>
    <link href="https://play.google.com/store/apps/details?id=com.ilyabogdanovich.geotracker" />
    <extensions>
      <geotracker:meta>
        <geotracker:length>1439.11</geotracker:length>
        <geotracker:duration>1616551</geotracker:duration>
        <geotracker:creationtime>2026-03-29T18:06:56Z</geotracker:creationtime>
        <geotracker:activity>0</geotracker:activity>
      </geotracker:meta>
    </extensions>
    <trkseg>
      <trkpt lat="40.85171479" lon="14.2540325">
        <ele>106.66</ele>
        <time>2026-03-29T18:09:51Z</time>
      </trkpt>
      <trkpt lat="40.85176705" lon="14.25413225">
        <ele>98.14</ele>
        <time>2026-03-29T18:10:01Z</time>
      </trkpt>
      <trkpt lat="40.85184346" lon="14.25421945">
        <ele>93.13</ele>
        <time>2026-03-29T18:10:11Z</time>
      </trkpt>
      <trkpt lat="40.85193559" lon="14.25422485">
        <ele>92.78</ele>
        <time>2026-03-29T18:10:17Z</time>
      </trkpt>
      <trkpt lat="40.8520202" lon="14.2541556">
        <ele>85.03</ele>
        <time>2026-03-29T18:10:25Z</time>
      </trkpt>
      <trkpt lat="40.85208803" lon="14.254075">
        <ele>82.21</ele>
        <time>2026-03-29T18:10:33Z</time>
      </trkpt>
      <trkpt lat="40.85218246" lon="14.25401766">
        <ele>85.31</ele>
        <time>2026-03-29T18:10:39Z</time>
      </trkpt>
      <trkpt lat="40.85227409" lon="14.2539608">
        <ele>85.83</ele>
        <time>2026-03-29T18:10:45Z</time>
      </trkpt>
      <trkpt lat="40.85237202" lon="14.25390962">
        <ele>84.06</ele>
        <time>2026-03-29T18:10:52Z</time>
      </trkpt>
      <trkpt lat="40.85246585" lon="14.25391623">
        <ele>81.32</ele>
        <time>2026-03-29T18:10:58Z</time>
      </trkpt>
      <trkpt lat="40.85256419" lon="14.25387654">
        <ele>85.92</ele>
        <time>2026-03-29T18:11:05Z</time>
      </trkpt>
      <trkpt lat="40.85266088" lon="14.25383348">
        <ele>85.37</ele>
        <time>2026-03-29T18:11:12Z</time>
      </trkpt>
      <trkpt lat="40.85276249" lon="14.25381982">
        <ele>85.6</ele>
        <time>2026-03-29T18:11:19Z</time>
      </trkpt>
      <trkpt lat="40.8528543" lon="14.25377633">
        <ele>86.98</ele>
        <time>2026-03-29T18:11:25Z</time>
      </trkpt>
      <trkpt lat="40.85293497" lon="14.25371906">
        <ele>88.83</ele>
        <time>2026-03-29T18:11:32Z</time>
      </trkpt>
      <trkpt lat="40.85302042" lon="14.25364625">
        <ele>97.24</ele>
        <time>2026-03-29T18:11:42Z</time>
      </trkpt>
      <trkpt lat="40.8531032" lon="14.25356825">
        <ele>101.56</ele>
        <time>2026-03-29T18:11:50Z</time>
      </trkpt>
      <trkpt lat="40.85319406" lon="14.25351669">
        <ele>102.63</ele>
        <time>2026-03-29T18:11:57Z</time>
      </trkpt>
      <trkpt lat="40.8532807" lon="14.25346321">
        <ele>106.45</ele>
        <time>2026-03-29T18:12:04Z</time>
      </trkpt>
      <trkpt lat="40.8533746" lon="14.25341458">
        <ele>107.64</ele>
        <time>2026-03-29T18:12:12Z</time>
      </trkpt>
      <trkpt lat="40.8534586" lon="14.25335209">
        <ele>108.93</ele>
        <time>2026-03-29T18:12:19Z</time>
      </trkpt>
      <trkpt lat="40.85355336" lon="14.2533188">
        <ele>108.57</ele>
        <time>2026-03-29T18:12:26Z</time>
      </trkpt>
      <trkpt lat="40.85363951" lon="14.25336903">
        <ele>105.58</ele>
        <time>2026-03-29T18:12:32Z</time>
      </trkpt>
      <trkpt lat="40.85373474" lon="14.2533947">
        <ele>104.85</ele>
        <time>2026-03-29T18:12:39Z</time>
      </trkpt>
      <trkpt lat="40.85377727" lon="14.25351179">
        <ele>104.58</ele>
        <time>2026-03-29T18:12:47Z</time>
      </trkpt>
      <trkpt lat="40.85380441" lon="14.25363071">
        <ele>103.9</ele>
        <time>2026-03-29T18:12:54Z</time>
      </trkpt>
      <trkpt lat="40.85383656" lon="14.25374659">
        <ele>101.27</ele>
        <time>2026-03-29T18:13:01Z</time>
      </trkpt>
      <trkpt lat="40.85387766" lon="14.25386245">
        <ele>100.22</ele>
        <time>2026-03-29T18:13:08Z</time>
      </trkpt>
      <trkpt lat="40.85392205" lon="14.25397655">
        <ele>98.64</ele>
        <time>2026-03-29T18:13:16Z</time>
      </trkpt>
      <trkpt lat="40.85393911" lon="14.25409977">
        <ele>98.86</ele>
        <time>2026-03-29T18:13:24Z</time>
      </trkpt>
      <trkpt lat="40.85396125" lon="14.25422006">
        <ele>96.75</ele>
        <time>2026-03-29T18:13:32Z</time>
      </trkpt>
      <trkpt lat="40.85405382" lon="14.25437195">
        <ele>95.97</ele>
        <time>2026-03-29T18:13:45Z</time>
      </trkpt>
      <trkpt lat="40.85414437" lon="14.25433131">
        <ele>98.09</ele>
        <time>2026-03-29T18:13:53Z</time>
      </trkpt>
      <trkpt lat="40.85413247" lon="14.25420334">
        <ele>97.41</ele>
        <time>2026-03-29T18:14:01Z</time>
      </trkpt>
      <trkpt lat="40.85406317" lon="14.25412407">
        <ele>96.32</ele>
        <time>2026-03-29T18:14:08Z</time>
      </trkpt>
      <trkpt lat="40.85399862" lon="14.25401852">
        <ele>95.15</ele>
        <time>2026-03-29T18:14:16Z</time>
      </trkpt>
      <trkpt lat="40.8539522" lon="14.25389855">
        <ele>94.62</ele>
        <time>2026-03-29T18:14:23Z</time>
      </trkpt>
      <trkpt lat="40.8539213" lon="14.25376851">
        <ele>94.15</ele>
        <time>2026-03-29T18:14:30Z</time>
      </trkpt>
      <trkpt lat="40.85388477" lon="14.25365213">
        <ele>95.11</ele>
        <time>2026-03-29T18:14:37Z</time>
      </trkpt>
      <trkpt lat="40.85383824" lon="14.25354173">
        <ele>96.57</ele>
        <time>2026-03-29T18:14:44Z</time>
      </trkpt>
      <trkpt lat="40.85384273" lon="14.25342153">
        <ele>99.61</ele>
        <time>2026-03-29T18:14:52Z</time>
      </trkpt>
      <trkpt lat="40.85390105" lon="14.25332546">
        <ele>98.55</ele>
        <time>2026-03-29T18:15:00Z</time>
      </trkpt>
      <trkpt lat="40.85399808" lon="14.25329956">
        <ele>96.36</ele>
        <time>2026-03-29T18:15:08Z</time>
      </trkpt>
      <trkpt lat="40.85407329" lon="14.25322639">
        <ele>91.98</ele>
        <time>2026-03-29T18:15:15Z</time>
      </trkpt>
      <trkpt lat="40.85408817" lon="14.25310399">
        <ele>88.19</ele>
        <time>2026-03-29T18:15:30Z</time>
      </trkpt>
      <trkpt lat="40.85401544" lon="14.25303115">
        <ele>86.76</ele>
        <time>2026-03-29T18:15:37Z</time>
      </trkpt>
      <trkpt lat="40.85395314" lon="14.25294461">
        <ele>86.65</ele>
        <time>2026-03-29T18:15:48Z</time>
      </trkpt>
      <trkpt lat="40.85389052" lon="14.25285886">
        <ele>88.21</ele>
        <time>2026-03-29T18:15:57Z</time>
      </trkpt>
      <trkpt lat="40.85383825" lon="14.25274918">
        <ele>90.68</ele>
        <time>2026-03-29T18:16:05Z</time>
      </trkpt>
      <trkpt lat="40.85377954" lon="14.25265646">
        <ele>91.74</ele>
        <time>2026-03-29T18:16:21Z</time>
      </trkpt>
      <trkpt lat="40.85370939" lon="14.25256919">
        <ele>88.92</ele>
        <time>2026-03-29T18:16:32Z</time>
      </trkpt>
      <trkpt lat="40.85364445" lon="14.25248076">
        <ele>88.22</ele>
        <time>2026-03-29T18:16:40Z</time>
      </trkpt>
      <trkpt lat="40.85368153" lon="14.25237133">
        <ele>87.22</ele>
        <time>2026-03-29T18:16:48Z</time>
      </trkpt>
      <trkpt lat="40.85367794" lon="14.25224507">
        <ele>87.89</ele>
        <time>2026-03-29T18:17:02Z</time>
      </trkpt>
      <trkpt lat="40.85362221" lon="14.25214049">
        <ele>88.82</ele>
        <time>2026-03-29T18:17:11Z</time>
      </trkpt>
      <trkpt lat="40.85356747" lon="14.25204533">
        <ele>88.89</ele>
        <time>2026-03-29T18:17:18Z</time>
      </trkpt>
      <trkpt lat="40.85350905" lon="14.25194987">
        <ele>85.42</ele>
        <time>2026-03-29T18:17:26Z</time>
      </trkpt>
      <trkpt lat="40.85356092" lon="14.25184697">
        <ele>85.79</ele>
        <time>2026-03-29T18:17:34Z</time>
      </trkpt>
      <trkpt lat="40.853574" lon="14.25172767">
        <ele>87.68</ele>
        <time>2026-03-29T18:17:44Z</time>
      </trkpt>
      <trkpt lat="40.85352184" lon="14.25162306">
        <ele>88.97</ele>
        <time>2026-03-29T18:17:55Z</time>
      </trkpt>
      <trkpt lat="40.85344282" lon="14.25155885">
        <ele>86.93</ele>
        <time>2026-03-29T18:18:26Z</time>
      </trkpt>
      <trkpt lat="40.85336473" lon="14.2514991">
        <ele>86.98</ele>
        <time>2026-03-29T18:18:33Z</time>
      </trkpt>
      <trkpt lat="40.85331796" lon="14.25138905">
        <ele>89.97</ele>
        <time>2026-03-29T18:18:41Z</time>
      </trkpt>
      <trkpt lat="40.85322628" lon="14.25135487">
        <ele>92.94</ele>
        <time>2026-03-29T18:19:21Z</time>
      </trkpt>
      <trkpt lat="40.85314846" lon="14.25142871">
        <ele>90.29</ele>
        <time>2026-03-29T18:19:29Z</time>
      </trkpt>
      <trkpt lat="40.85306019" lon="14.25146559">
        <ele>91.32</ele>
        <time>2026-03-29T18:19:38Z</time>
      </trkpt>
      <trkpt lat="40.85295907" lon="14.25149004">
        <ele>93.63</ele>
        <time>2026-03-29T18:19:46Z</time>
      </trkpt>
      <trkpt lat="40.85287471" lon="14.25153466">
        <ele>95.74</ele>
        <time>2026-03-29T18:19:53Z</time>
      </trkpt>
      <trkpt lat="40.85278488" lon="14.25156117">
        <ele>97.53</ele>
        <time>2026-03-29T18:20:00Z</time>
      </trkpt>
      <trkpt lat="40.85268868" lon="14.25160267">
        <ele>98.6</ele>
        <time>2026-03-29T18:20:08Z</time>
      </trkpt>
      <trkpt lat="40.85258827" lon="14.25162466">
        <ele>99.23</ele>
        <time>2026-03-29T18:20:16Z</time>
      </trkpt>
      <trkpt lat="40.85252473" lon="14.25172103">
        <ele>100.66</ele>
        <time>2026-03-29T18:20:53Z</time>
      </trkpt>
      <trkpt lat="40.8524344" lon="14.25172458">
        <ele>101.48</ele>
        <time>2026-03-29T18:21:00Z</time>
      </trkpt>
      <trkpt lat="40.85234473" lon="14.25167968">
        <ele>100.6</ele>
        <time>2026-03-29T18:21:07Z</time>
      </trkpt>
      <trkpt lat="40.85225166" lon="14.25166292">
        <ele>103.37</ele>
        <time>2026-03-29T18:21:14Z</time>
      </trkpt>
      <trkpt lat="40.85215736" lon="14.25168237">
        <ele>105.62</ele>
        <time>2026-03-29T18:21:22Z</time>
      </trkpt>
      <trkpt lat="40.85206" lon="14.25171522">
        <ele>106.07</ele>
        <time>2026-03-29T18:21:30Z</time>
      </trkpt>
      <trkpt lat="40.85194819" lon="14.25170013">
        <ele>110</ele>
        <time>2026-03-29T18:21:39Z</time>
      </trkpt>
      <trkpt lat="40.85186264" lon="14.25174811">
        <ele>110.61</ele>
        <time>2026-03-29T18:21:46Z</time>
      </trkpt>
      <trkpt lat="40.85177302" lon="14.25177481">
        <ele>109.79</ele>
        <time>2026-03-29T18:21:53Z</time>
      </trkpt>
      <trkpt lat="40.85167601" lon="14.2517768">
        <ele>112.41</ele>
        <time>2026-03-29T18:22:00Z</time>
      </trkpt>
      <trkpt lat="40.85157744" lon="14.25179301">
        <ele>113.32</ele>
        <time>2026-03-29T18:22:08Z</time>
      </trkpt>
      <trkpt lat="40.85147841" lon="14.25179382">
        <ele>116.89</ele>
        <time>2026-03-29T18:22:15Z</time>
      </trkpt>
      <trkpt lat="40.85139059" lon="14.25182231">
        <ele>114.09</ele>
        <time>2026-03-29T18:22:23Z</time>
      </trkpt>
      <trkpt lat="40.85129131" lon="14.25182824">
        <ele>112.98</ele>
        <time>2026-03-29T18:22:32Z</time>
      </trkpt>
      <trkpt lat="40.85125786" lon="14.25171302">
        <ele>105.12</ele>
        <time>2026-03-29T18:22:55Z</time>
      </trkpt>
      <trkpt lat="40.85122237" lon="14.25159035">
        <ele>103.75</ele>
        <time>2026-03-29T18:23:05Z</time>
      </trkpt>
      <trkpt lat="40.85118809" lon="14.25146765">
        <ele>102.58</ele>
        <time>2026-03-29T18:23:13Z</time>
      </trkpt>
      <trkpt lat="40.85116617" lon="14.25134406">
        <ele>100.35</ele>
        <time>2026-03-29T18:23:21Z</time>
      </trkpt>
      <trkpt lat="40.85113096" lon="14.25122582">
        <ele>98.78</ele>
        <time>2026-03-29T18:23:29Z</time>
      </trkpt>
      <trkpt lat="40.85111522" lon="14.25110083">
        <ele>94.99</ele>
        <time>2026-03-29T18:23:37Z</time>
      </trkpt>
      <trkpt lat="40.85110477" lon="14.25096892">
        <ele>91.78</ele>
        <time>2026-03-29T18:23:47Z</time>
      </trkpt>
      <trkpt lat="40.85108607" lon="14.25085054">
        <ele>90.67</ele>
        <time>2026-03-29T18:23:55Z</time>
      </trkpt>
      <trkpt lat="40.85107816" lon="14.25072949">
        <ele>88.47</ele>
        <time>2026-03-29T18:24:03Z</time>
      </trkpt>
      <trkpt lat="40.85110849" lon="14.25060643">
        <ele>92.15</ele>
        <time>2026-03-29T18:24:21Z</time>
      </trkpt>
      <trkpt lat="40.85101822" lon="14.25063332">
        <ele>90.79</ele>
        <time>2026-03-29T18:24:51Z</time>
      </trkpt>
      <trkpt lat="40.85092603" lon="14.25061895">
        <ele>89.03</ele>
        <time>2026-03-29T18:24:59Z</time>
      </trkpt>
      <trkpt lat="40.85082305" lon="14.25065757">
        <ele>89.39</ele>
        <time>2026-03-29T18:25:08Z</time>
      </trkpt>
      <trkpt lat="40.85073735" lon="14.25062073">
        <ele>91.01</ele>
        <time>2026-03-29T18:25:15Z</time>
      </trkpt>
      <trkpt lat="40.85083282" lon="14.25065043">
        <ele>93.23</ele>
        <time>2026-03-29T18:25:27Z</time>
      </trkpt>
      <trkpt lat="40.85095036" lon="14.25065954">
        <ele>90.3</ele>
        <time>2026-03-29T18:25:34Z</time>
      </trkpt>
      <trkpt lat="40.85105243" lon="14.25064274">
        <ele>89.74</ele>
        <time>2026-03-29T18:25:40Z</time>
      </trkpt>
      <trkpt lat="40.85115212" lon="14.25063479">
        <ele>86.6</ele>
        <time>2026-03-29T18:25:47Z</time>
      </trkpt>
      <trkpt lat="40.85120186" lon="14.25074097">
        <ele>100.6</ele>
        <time>2026-03-29T18:25:57Z</time>
      </trkpt>
      <trkpt lat="40.85123527" lon="14.25085185">
        <ele>102.19</ele>
        <time>2026-03-29T18:26:04Z</time>
      </trkpt>
      <trkpt lat="40.85119952" lon="14.25097572">
        <ele>96.65</ele>
        <time>2026-03-29T18:26:12Z</time>
      </trkpt>
      <trkpt lat="40.85121954" lon="14.25109672">
        <ele>98.24</ele>
        <time>2026-03-29T18:26:18Z</time>
      </trkpt>
      <trkpt lat="40.85121286" lon="14.25121636">
        <ele>101.27</ele>
        <time>2026-03-29T18:26:24Z</time>
      </trkpt>
      <trkpt lat="40.85123471" lon="14.25134021">
        <ele>98.46</ele>
        <time>2026-03-29T18:26:31Z</time>
      </trkpt>
      <trkpt lat="40.85127912" lon="14.25146105">
        <ele>95.56</ele>
        <time>2026-03-29T18:26:38Z</time>
      </trkpt>
      <trkpt lat="40.85128572" lon="14.25159541">
        <ele>98.7</ele>
        <time>2026-03-29T18:26:43Z</time>
      </trkpt>
      <trkpt lat="40.8512934" lon="14.25172022">
        <ele>105.56</ele>
        <time>2026-03-29T18:26:46Z</time>
      </trkpt>
      <trkpt lat="40.85129897" lon="14.25185293">
        <ele>102.82</ele>
        <time>2026-03-29T18:26:51Z</time>
      </trkpt>
      <trkpt lat="40.85125985" lon="14.25196635">
        <ele>99.28</ele>
        <time>2026-03-29T18:27:01Z</time>
      </trkpt>
      <trkpt lat="40.85126825" lon="14.25214111">
        <ele>100.67</ele>
        <time>2026-03-29T18:27:17Z</time>
      </trkpt>
      <trkpt lat="40.85127969" lon="14.25226607">
        <ele>104.63</ele>
        <time>2026-03-29T18:27:25Z</time>
      </trkpt>
      <trkpt lat="40.85133737" lon="14.25236397">
        <ele>100.76</ele>
        <time>2026-03-29T18:27:40Z</time>
      </trkpt>
      <trkpt lat="40.85135637" lon="14.25249069">
        <ele>100.03</ele>
        <time>2026-03-29T18:27:49Z</time>
      </trkpt>
      <trkpt lat="40.85137876" lon="14.25261621">
        <ele>99.86</ele>
        <time>2026-03-29T18:27:57Z</time>
      </trkpt>
      <trkpt lat="40.8513875" lon="14.25273746">
        <ele>101.28</ele>
        <time>2026-03-29T18:28:04Z</time>
      </trkpt>
      <trkpt lat="40.85141708" lon="14.25286773">
        <ele>105.46</ele>
        <time>2026-03-29T18:28:12Z</time>
      </trkpt>
      <trkpt lat="40.8514556" lon="14.252981">
        <ele>110.79</ele>
        <time>2026-03-29T18:28:20Z</time>
      </trkpt>
      <trkpt lat="40.85149851" lon="14.2530948">
        <ele>109.15</ele>
        <time>2026-03-29T18:28:26Z</time>
      </trkpt>
      <trkpt lat="40.8515351" lon="14.25321411">
        <ele>109.42</ele>
        <time>2026-03-29T18:28:33Z</time>
      </trkpt>
      <trkpt lat="40.85158258" lon="14.2533176">
        <ele>105.34</ele>
        <time>2026-03-29T18:28:40Z</time>
      </trkpt>
      <trkpt lat="40.85158968" lon="14.25344224">
        <ele>104.62</ele>
        <time>2026-03-29T18:28:47Z</time>
      </trkpt>
      <trkpt lat="40.85160337" lon="14.25356342">
        <ele>108.1</ele>
        <time>2026-03-29T18:29:03Z</time>
      </trkpt>
      <trkpt lat="40.85165534" lon="14.25367043">
        <ele>103.06</ele>
        <time>2026-03-29T18:29:17Z</time>
      </trkpt>
      <trkpt lat="40.85175258" lon="14.25366973">
        <ele>101.1</ele>
        <time>2026-03-29T18:29:43Z</time>
      </trkpt>
      <trkpt lat="40.85178598" lon="14.25364248">
        <ele>96.09</ele>
        <time>2026-03-29T18:31:44Z</time>
      </trkpt>
      <trkpt lat="40.85150857" lon="14.25355105">
        <ele>95.84</ele>
        <time>2026-03-29T18:32:15Z</time>
      </trkpt>
      <trkpt lat="40.85153844" lon="14.25366644">
        <ele>113.59</ele>
        <time>2026-03-29T18:32:24Z</time>
      </trkpt>
      <trkpt lat="40.85162678" lon="14.25370242">
        <ele>119.74</ele>
        <time>2026-03-29T18:32:29Z</time>
      </trkpt>
    </trkseg>
  </trk>
</gpx>